[{"OBJECT_NAME":"STARLINK-4515","OBJECT_ID":"2022-097K","EPOCH":"2026-03-09T10:23:06.023904","MEAN_MOTION":15.0883713,"ECCENTRICITY":0.00012214,"INCLINATION":53.2162,"RA_OF_ASC_NODE":125.2728,"ARG_OF_PERICENTER":96.2297,"MEAN_ANOMALY":263.8835,"EPHEMERIS_TYPE":0,"CLASSIFICATION_TYPE":"U","NORAD_CAT_ID":53397,"ELEMENT_SET_NO":999,"REV_AT_EPOCH":19847,"BSTAR":-1.2077157e-5,"MEAN_MOTION_DOT":-4.8e-6,"MEAN_MOTION_DDOT":0},{"OBJECT_NAME":"ELECTRON KICK STAGE R\/B","OBJECT_ID":"2024-172G","EPOCH":"2026-03-09T20:17:57.250464","MEAN_MOTION":14.97730495,"ECCENTRICITY":0.00502098,"INCLINATION":98.0041,"RA_OF_ASC_NODE":176.7734,"ARG_OF_PERICENTER":80.5411,"MEAN_ANOMALY":280.148,"EPHEMERIS_TYPE":0,"CLASSIFICATION_TYPE":"U","NORAD_CAT_ID":61226,"ELEMENT_SET_NO":999,"REV_AT_EPOCH":7982,"BSTAR":0.00056326684,"MEAN_MOTION_DOT":6.716e-5,"MEAN_MOTION_DDOT":0}]
